{
  "type": "FeatureCollection",
  "features": [
    {
      "type": "Feature",
      "properties": {
        "norad_id": 60182,
        "name": "ALOS-4 (DAICHI-4)",
        "group": "resource",
        "lat": 36.7294340775826,
        "lon": -78.20099846918065,
        "alt_km": 627.6694260591785,
        "timestamp": "2025-12-27T04:40:45.158016+00:00",
        "meta_object_name": "ALOS-4 (DAICHI-4)",
        "meta_object_id": "2024-123A",
        "meta_epoch": "2025-12-26T19:55:12.965952",
        "meta_mean_motion": 14.79478137,
        "meta_eccentricity": 0.00014191,
        "meta_inclination": 97.9215,
        "meta_ra_of_asc_node": 95.4758,
        "meta_arg_of_pericenter": 100.4397,
        "meta_mean_anomaly": 259.6975,
        "meta_ephemeris_type": 0,
        "meta_classification_type": "U",
        "meta_norad_cat_id": 60182,
        "meta_element_set_no": 999,
        "meta_rev_at_epoch": 8039,
        "meta_bstar": 0.00030778868,
        "meta_mean_motion_dot": 2.248e-05,
        "meta_mean_motion_ddot": 0,
        "tle_line1": "1 60182U 24123A   25360.83001118  .00002248  00000+0  30779-3 0  9991",
        "tle_line2": "2 60182  97.9215  95.4758 0001419 100.4397 259.6975 14.79478137 80393"
      },
      "geometry": {
        "type": "Point",
        "coordinates": [
          -78.20099846918065,
          36.7294340775826
        ]
      }
    },
    {
      "type": "Feature",
      "properties": {
        "norad_id": 60452,
        "name": "LEGION 3",
        "group": "resource",
        "lat": 24.106990105713308,
        "lon": -100.76784954036899,
        "alt_km": 520.0278167312454,
        "timestamp": "2025-12-27T04:40:45.158027+00:00",
        "meta_object_name": "LEGION 3",
        "meta_object_id": "2024-146A",
        "meta_epoch": "2025-12-26T20:36:58.724928",
        "meta_mean_motion": 15.15906351,
        "meta_eccentricity": 0.00157598,
        "meta_inclination": 45.0004,
        "meta_ra_of_asc_node": 234.4336,
        "meta_arg_of_pericenter": 273.5819,
        "meta_mean_anomaly": 86.3257,
        "meta_ephemeris_type": 0,
        "meta_classification_type": "U",
        "meta_norad_cat_id": 60452,
        "meta_element_set_no": 999,
        "meta_rev_at_epoch": 7587,
        "meta_bstar": 0.00032671716,
        "meta_mean_motion_dot": 6.122e-05,
        "meta_mean_motion_ddot": 0,
        "tle_line1": "1 60452U 24146A   25360.85901302  .00006122  00000+0  32672-3 0  9991",
        "tle_line2": "2 60452  45.0004 234.4336 0015759 273.5819  86.3257 15.15906351 75873"
      },
      "geometry": {
        "type": "Point",
        "coordinates": [
          -100.76784954036899,
          24.106990105713308
        ]
      }
    },
    {
      "type": "Feature",
      "properties": {
        "norad_id": 60453,
        "name": "LEGION 4",
        "group": "resource",
        "lat": 24.046303116545197,
        "lon": -9.094260423328935,
        "alt_km": 509.02072363121806,
        "timestamp": "2025-12-27T04:40:45.158037+00:00",
        "meta_object_name": "LEGION 4",
        "meta_object_id": "2024-146B",
        "meta_epoch": "2025-12-26T22:11:56.583744",
        "meta_mean_motion": 15.15982395,
        "meta_eccentricity": 0.00078319,
        "meta_inclination": 45.0396,
        "meta_ra_of_asc_node": 325.8731,
        "meta_arg_of_pericenter": 30.8391,
        "meta_mean_anomaly": 329.2947,
        "meta_ephemeris_type": 0,
        "meta_classification_type": "U",
        "meta_norad_cat_id": 60453,
        "meta_element_set_no": 999,
        "meta_rev_at_epoch": 7473,
        "meta_bstar": 0.00036641717,
        "meta_mean_motion_dot": 6.9e-05,
        "meta_mean_motion_ddot": 0,
        "tle_line1": "1 60453U 24146B   25360.92496046  .00006900  00000+0  36642-3 0  9999",
        "tle_line2": "2 60453  45.0396 325.8731 0007831  30.8391 329.2947 15.15982395 74734"
      },
      "geometry": {
        "type": "Point",
        "coordinates": [
          -9.094260423328935,
          24.046303116545197
        ]
      }
    },
    {
      "type": "Feature",
      "properties": {
        "norad_id": 60989,
        "name": "SENTINEL-2C",
        "group": "resource",
        "lat": -76.17697932299264,
        "lon": -144.31107221073358,
        "alt_km": 797.2045501230914,
        "timestamp": "2025-12-27T04:40:45.158048+00:00",
        "meta_object_name": "SENTINEL-2C",
        "meta_object_id": "2024-157A",
        "meta_epoch": "2025-12-26T22:26:13.261344",
        "meta_mean_motion": 14.30818312,
        "meta_eccentricity": 0.00013552,
        "meta_inclination": 98.5665,
        "meta_ra_of_asc_node": 73.2118,
        "meta_arg_of_pericenter": 102.1348,
        "meta_mean_anomaly": 257.9986,
        "meta_ephemeris_type": 0,
        "meta_classification_type": "U",
        "meta_norad_cat_id": 60989,
        "meta_element_set_no": 999,
        "meta_rev_at_epoch": 6835,
        "meta_bstar": 8.9389669e-05,
        "meta_mean_motion_dot": 1.91e-06,
        "meta_mean_motion_ddot": 0,
        "tle_line1": "1 60989U 24157A   25360.93487571  .00000191  00000+0  89390-4 0  9994",
        "tle_line2": "2 60989  98.5665  73.2118 0001355 102.1348 257.9986 14.30818312 68357"
      },
      "geometry": {
        "type": "Point",
        "coordinates": [
          -144.31107221073358,
          -76.17697932299264
        ]
      }
    },
    {
      "type": "Feature",
      "properties": {
        "norad_id": 61735,
        "name": "IONOSFERA-M 1",
        "group": "resource",
        "lat": 73.03302338172784,
        "lon": 81.20825833417426,
        "alt_km": 809.1867178739503,
        "timestamp": "2025-12-27T04:40:45.158058+00:00",
        "meta_object_name": "IONOSFERA-M 1",
        "meta_object_id": "2024-199A",
        "meta_epoch": "2025-12-26T23:07:33.244608",
        "meta_mean_motion": 14.22717239,
        "meta_eccentricity": 2.537e-05,
        "meta_inclination": 98.7395,
        "meta_ra_of_asc_node": 230.7019,
        "meta_arg_of_pericenter": 1.4872,
        "meta_mean_anomaly": 358.6306,
        "meta_ephemeris_type": 0,
        "meta_classification_type": "U",
        "meta_norad_cat_id": 61735,
        "meta_element_set_no": 999,
        "meta_rev_at_epoch": 10321,
        "meta_bstar": 5.1208453e-05,
        "meta_mean_motion_dot": 7e-07,
        "meta_mean_motion_ddot": 0,
        "tle_line1": "1 61735U 24199A   25360.96357922  .00000070  00000+0  51208-4 0  9992",
        "tle_line2": "2 61735  98.7395 230.7019 0000253   1.4872 358.6306 14.22717239103215"
      },
      "geometry": {
        "type": "Point",
        "coordinates": [
          81.20825833417426,
          73.03302338172784
        ]
      }
    },
    {
      "type": "Feature",
      "properties": {
        "norad_id": 61736,
        "name": "IONOSFERA-M 2",
        "group": "resource",
        "lat": -70.67668594418859,
        "lon": -103.1366989176963,
        "alt_km": 824.7270630825133,
        "timestamp": "2025-12-27T04:40:45.158068+00:00",
        "meta_object_name": "IONOSFERA-M 2",
        "meta_object_id": "2024-199B",
        "meta_epoch": "2025-12-26T22:16:08.627232",
        "meta_mean_motion": 14.22719408,
        "meta_eccentricity": 0.00018759,
        "meta_inclination": 98.7394,
        "meta_ra_of_asc_node": 230.5788,
        "meta_arg_of_pericenter": 92.2504,
        "meta_mean_anomaly": 267.8889,
        "meta_ephemeris_type": 0,
        "meta_classification_type": "U",
        "meta_norad_cat_id": 61736,
        "meta_element_set_no": 999,
        "meta_rev_at_epoch": 10633,
        "meta_bstar": 5.5038876e-05,
        "meta_mean_motion_dot": 7.9e-07,
        "meta_mean_motion_ddot": 0,
        "tle_line1": "1 61736U 24199B   25360.92787763  .00000079  00000+0  55039-4 0  9994",
        "tle_line2": "2 61736  98.7394 230.5788 0001875  92.2504 267.8889 14.22719408106330"
      },
      "geometry": {
        "type": "Point",
        "coordinates": [
          -103.1366989176963,
          -70.67668594418859
        ]
      }
    },
    {
      "type": "Feature",
      "properties": {
        "norad_id": 63772,
        "name": "BIOMASS",
        "group": "resource",
        "lat": -70.41354647829021,
        "lon": -150.50710295086398,
        "alt_km": 676.8951874941276,
        "timestamp": "2025-12-27T04:40:45.158078+00:00",
        "meta_object_name": "BIOMASS",
        "meta_object_id": "2025-090A",
        "meta_epoch": "2025-12-26T12:38:37.094208",
        "meta_mean_motion": 14.67541844,
        "meta_eccentricity": 0.0001081,
        "meta_inclination": 98.0698,
        "meta_ra_of_asc_node": 185.3355,
        "meta_arg_of_pericenter": 85.3818,
        "meta_mean_anomaly": 274.751,
        "meta_ephemeris_type": 0,
        "meta_classification_type": "U",
        "meta_norad_cat_id": 63772,
        "meta_element_set_no": 999,
        "meta_rev_at_epoch": 3536,
        "meta_bstar": 0.00022694,
        "meta_mean_motion_dot": 1.239e-05,
        "meta_mean_motion_ddot": 0,
        "tle_line1": "1 63772U 25090A   25360.52681822  .00001239  00000+0  22694-3 0  9991",
        "tle_line2": "2 63772  98.0698 185.3355 0001081  85.3818 274.7510 14.67541844 35367"
      },
      "geometry": {
        "type": "Point",
        "coordinates": [
          -150.50710295086398,
          -70.41354647829021
        ]
      }
    }
  ]
}